[{"OBJECT_NAME":"OBJECT F","OBJECT_ID":"2023-072F","EPOCH":"2026-03-09T23:31:37.259904","MEAN_MOTION":15.29470958,"ECCENTRICITY":0.00062878,"INCLINATION":97.5173,"RA_OF_ASC_NODE":265.798,"ARG_OF_PERICENTER":19.0017,"MEAN_ANOMALY":341.1456,"EPHEMERIS_TYPE":0,"CLASSIFICATION_TYPE":"U","NORAD_CAT_ID":56748,"ELEMENT_SET_NO":999,"REV_AT_EPOCH":15460,"BSTAR":0.00043416252,"MEAN_MOTION_DOT":0.00012341,"MEAN_MOTION_DDOT":0},{"OBJECT_NAME":"STARLINK-36443","OBJECT_ID":"2026-005AD","EPOCH":"2026-03-09T12:36:39.531456","MEAN_MOTION":15.28415724,"ECCENTRICITY":0.00022913,"INCLINATION":42.9998,"RA_OF_ASC_NODE":238.7026,"ARG_OF_PERICENTER":266.798,"MEAN_ANOMALY":93.261,"EPHEMERIS_TYPE":0,"CLASSIFICATION_TYPE":"U","NORAD_CAT_ID":67431,"ELEMENT_SET_NO":999,"REV_AT_EPOCH":867,"BSTAR":0.001062734,"MEAN_MOTION_DOT":0.00029859,"MEAN_MOTION_DDOT":0}]
